{
  "type": "FeatureCollection",
  "features": [
    {
      "type": "Feature",
      "properties": {
        "norad_id": 65943,
        "name": "E-KAGAKU-1",
        "group": "stations",
        "lat": 38.846439284430275,
        "lon": -32.6590113156364,
        "alt_km": 386.5640551251381,
        "timestamp": "2025-12-03T08:58:44.795581+00:00",
        "meta_object_name": "E-KAGAKU-1",
        "meta_object_id": "1998-067XQ",
        "meta_epoch": "2025-12-01T21:01:24.466368",
        "meta_mean_motion": 15.57573003,
        "meta_eccentricity": 0.0003749,
        "meta_inclination": 51.6307,
        "meta_ra_of_asc_node": 194.5023,
        "meta_arg_of_pericenter": 145.4218,
        "meta_mean_anomaly": 214.7019,
        "meta_ephemeris_type": 0,
        "meta_classification_type": "U",
        "meta_norad_cat_id": 65943,
        "meta_element_set_no": 999,
        "meta_rev_at_epoch": 816,
        "meta_bstar": 0.00091790589,
        "meta_mean_motion_dot": 0.00069131,
        "meta_mean_motion_ddot": 0,
        "tle_line1": "1 65943U 98067XQ  25335.87597762  .00069131  00000+0  91791-3 0  9995",
        "tle_line2": "2 65943  51.6307 194.5023 0003749 145.4218 214.7019 15.57573003  8168"
      },
      "geometry": {
        "type": "Point",
        "coordinates": [
          -32.6590113156364,
          38.846439284430275
        ]
      }
    },
    {
      "type": "Feature",
      "properties": {
        "norad_id": 66052,
        "name": "HRC MONOBLOCK CAMERA",
        "group": "stations",
        "lat": -51.02820142768858,
        "lon": 109.8153595481651,
        "alt_km": 413.8490242938278,
        "timestamp": "2025-12-03T08:58:44.795591+00:00",
        "meta_object_name": "HRC MONOBLOCK CAMERA",
        "meta_object_id": "1998-067XR",
        "meta_epoch": "2025-12-03T03:09:28.334016",
        "meta_mean_motion": 15.53198776,
        "meta_eccentricity": 0.0004376,
        "meta_inclination": 51.6293,
        "meta_ra_of_asc_node": 189.3813,
        "meta_arg_of_pericenter": 146.0724,
        "meta_mean_anomaly": 214.0547,
        "meta_ephemeris_type": 0,
        "meta_classification_type": "U",
        "meta_norad_cat_id": 66052,
        "meta_element_set_no": 999,
        "meta_rev_at_epoch": 734,
        "meta_bstar": 0.00065965,
        "meta_mean_motion_dot": 0.00041976,
        "meta_mean_motion_ddot": 0,
        "tle_line1": "1 66052U 98067XR  25337.13157794  .00041976  00000+0  65965-3 0  9996",
        "tle_line2": "2 66052  51.6293 189.3813 0004376 146.0724 214.0547 15.53198776  7343"
      },
      "geometry": {
        "type": "Point",
        "coordinates": [
          109.8153595481651,
          -51.02820142768858
        ]
      }
    },
    {
      "type": "Feature",
      "properties": {
        "norad_id": 66174,
        "name": "HTV-X1",
        "group": "stations",
        "lat": -34.195019594282044,
        "lon": 156.27344114633223,
        "alt_km": 423.8757055715387,
        "timestamp": "2025-12-03T08:58:44.795604+00:00",
        "meta_object_name": "HTV-X1",
        "meta_object_id": "2025-241A",
        "meta_epoch": "2025-12-02T02:12:50.598720",
        "meta_mean_motion": 15.49237019,
        "meta_eccentricity": 0.00036389,
        "meta_inclination": 51.6314,
        "meta_ra_of_asc_node": 195.1903,
        "meta_arg_of_pericenter": 193.8265,
        "meta_mean_anomaly": 166.2625,
        "meta_ephemeris_type": 0,
        "meta_classification_type": "U",
        "meta_norad_cat_id": 66174,
        "meta_element_set_no": 999,
        "meta_rev_at_epoch": 51,
        "meta_bstar": 0.00017380747,
        "meta_mean_motion_dot": 9.217e-05,
        "meta_mean_motion_ddot": 0,
        "tle_line1": "1 66174U 25241A   25336.09225230  .00009217  00000+0  17381-3 0  9991",
        "tle_line2": "2 66174  51.6314 195.1903 0003638 193.8265 166.2625 15.49237019   513"
      },
      "geometry": {
        "type": "Point",
        "coordinates": [
          156.27344114633223,
          -34.195019594282044
        ]
      }
    },
    {
      "type": "Feature",
      "properties": {
        "norad_id": 66515,
        "name": "SZ-21 MODULE",
        "group": "stations",
        "lat": -30.96272206278501,
        "lon": -64.07290838336402,
        "alt_km": 381.5415011947407,
        "timestamp": "2025-12-03T08:58:44.795614+00:00",
        "meta_object_name": "SZ-21 MODULE",
        "meta_object_id": "2025-246C",
        "meta_epoch": "2025-12-02T13:34:42.175488",
        "meta_mean_motion": 15.61741357,
        "meta_eccentricity": 0.00057421,
        "meta_inclination": 41.4769,
        "meta_ra_of_asc_node": 78.0744,
        "meta_arg_of_pericenter": 200.196,
        "meta_mean_anomaly": 159.8653,
        "meta_ephemeris_type": 0,
        "meta_classification_type": "U",
        "meta_norad_cat_id": 66515,
        "meta_element_set_no": 999,
        "meta_rev_at_epoch": 285,
        "meta_bstar": 0.00037188642,
        "meta_mean_motion_dot": 0.00032894,
        "meta_mean_motion_ddot": 0,
        "tle_line1": "1 66515U 25246C   25336.56576592  .00032894  00000+0  37189-3 0  9992",
        "tle_line2": "2 66515  41.4769  78.0744 0005742 200.1960 159.8653 15.61741357  2854"
      },
      "geometry": {
        "type": "Point",
        "coordinates": [
          -64.07290838336402,
          -30.96272206278501
        ]
      }
    },
    {
      "type": "Feature",
      "properties": {
        "norad_id": 66645,
        "name": "SHENZHOU-22",
        "group": "stations",
        "lat": 39.30264087438599,
        "lon": 141.5034040215114,
        "alt_km": 388.00299790971985,
        "timestamp": "2025-12-03T08:58:44.795625+00:00",
        "meta_object_name": "SHENZHOU-22",
        "meta_object_id": "2025-272A",
        "meta_epoch": "2025-12-02T14:12:45.225504",
        "meta_mean_motion": 15.58538929,
        "meta_eccentricity": 0.00102296,
        "meta_inclination": 41.4674,
        "meta_ra_of_asc_node": 78.2835,
        "meta_arg_of_pericenter": 314.561,
        "meta_mean_anomaly": 45.4392,
        "meta_ephemeris_type": 0,
        "meta_classification_type": "U",
        "meta_norad_cat_id": 66645,
        "meta_element_set_no": 999,
        "meta_rev_at_epoch": 26245,
        "meta_bstar": 0.00035376094,
        "meta_mean_motion_dot": 0.00027659,
        "meta_mean_motion_ddot": 0,
        "tle_line1": "1 66645U 25272A   25336.59219011  .00027659  00000+0  35376-3 0  9997",
        "tle_line2": "2 66645  41.4674  78.2835 0010229 314.5610  45.4392 15.58538929262453"
      },
      "geometry": {
        "type": "Point",
        "coordinates": [
          141.5034040215114,
          39.30264087438599
        ]
      }
    },
    {
      "type": "Feature",
      "properties": {
        "norad_id": 66646,
        "name": "CZ-2F R/B",
        "group": "stations",
        "lat": -10.040774309161414,
        "lon": 58.43079337598299,
        "alt_km": 315.27995616404587,
        "timestamp": "2025-12-03T08:58:44.795637+00:00",
        "meta_object_name": "CZ-2F R/B",
        "meta_object_id": "2025-272B",
        "meta_epoch": "2025-11-26T11:17:54.506400",
        "meta_mean_motion": 16.01945612,
        "meta_eccentricity": 0.01210796,
        "meta_inclination": 41.4431,
        "meta_ra_of_asc_node": 114.9009,
        "meta_arg_of_pericenter": 133.7676,
        "meta_mean_anomaly": 227.3272,
        "meta_ephemeris_type": 0,
        "meta_classification_type": "U",
        "meta_norad_cat_id": 66646,
        "meta_element_set_no": 999,
        "meta_rev_at_epoch": 21,
        "meta_bstar": 0.00029319366,
        "meta_mean_motion_dot": 0.00449059,
        "meta_mean_motion_ddot": 7.567612e-06,
        "tle_line1": "1 66646U 25272B   25330.47076975  .00449059  75676-5  29319-3 0  9998",
        "tle_line2": "2 66646  41.4431 114.9009 0121079 133.7676 227.3272 16.01945612   217"
      },
      "geometry": {
        "type": "Point",
        "coordinates": [
          58.43079337598299,
          -10.040774309161414
        ]
      }
    },
    {
      "type": "Feature",
      "properties": {
        "norad_id": 66664,
        "name": "SOYUZ-MS 28",
        "group": "stations",
        "lat": -34.179212356369824,
        "lon": 156.2967163015328,
        "alt_km": 423.79707746769327,
        "timestamp": "2025-12-03T08:58:44.795647+00:00",
        "meta_object_name": "SOYUZ-MS 28",
        "meta_object_id": "2025-275A",
        "meta_epoch": "2025-12-02T22:20:22.303680",
        "meta_mean_motion": 15.49259436,
        "meta_eccentricity": 0.0003627,
        "meta_inclination": 51.631,
        "meta_ra_of_asc_node": 191.0402,
        "meta_arg_of_pericenter": 198.2346,
        "meta_mean_anomaly": 161.8513,
        "meta_ephemeris_type": 0,
        "meta_classification_type": "U",
        "meta_norad_cat_id": 66664,
        "meta_element_set_no": 999,
        "meta_rev_at_epoch": 92,
        "meta_bstar": 0.00022507,
        "meta_mean_motion_dot": 0.00012082,
        "meta_mean_motion_ddot": 0,
        "tle_line1": "1 66664U 25275A   25336.93081370  .00012082  00000+0  22507-3 0  9990",
        "tle_line2": "2 66664  51.6310 191.0402 0003627 198.2346 161.8513 15.49259436   928"
      },
      "geometry": {
        "type": "Point",
        "coordinates": [
          156.2967163015328,
          -34.179212356369824
        ]
      }
    }
  ]
}